CCSDS_OEM_VERS = 2.0
CREATION_DATE  = 2024-07-31T15:54:14.887
ORIGINATOR     = NASA/JSC/FOD/TOPO

META_START
OBJECT_NAME          = ISS
OBJECT_ID            = 1998-067-A
CENTER_NAME          = Earth
REF_FRAME            = EME2000
TIME_SYSTEM          = UTC
START_TIME           = 2024-07-31T11:35:10.928
USEABLE_START_TIME   = 2024-07-31T11:35:10.928
USEABLE_STOP_TIME    = 2024-08-15T11:35:10.928
STOP_TIME            = 2024-08-15T11:35:10.928
META_STOP

COMMENT Source: This file was produced by the TOPO office within FOD at JSC.
COMMENT Units are in kg and m^2
COMMENT MASS=464562.00
COMMENT DRAG_AREA=1992.70
COMMENT DRAG_COEFF=2.70
COMMENT SOLAR_RAD_AREA=0.00
COMMENT SOLAR_RAD_COEFF=0.00
COMMENT Orbits start at the ascending node epoch
COMMENT ISS first asc. node: EPOCH = 2024-07-31T11:54:40.039 $ ORBIT = 2542 $ LAN(DEG) = -32.46058
COMMENT ISS last asc. node : EPOCH = 2024-08-15T10:58:00.748 $ ORBIT = 2774 $ LAN(DEG) = -107.13379
COMMENT Begin sequence of events
COMMENT TRAJECTORY EVENT SUMMARY:
COMMENT 
COMMENT |       EVENT        |       TIG        | ORB |   DV    |   HA    |   HP    |
COMMENT |                    |       GMT        |     |   M/S   |   KM    |   KM    |
COMMENT |                    |                  |     |  (F/S)  |  (NM)   |  (NM)   |
COMMENT =============================================================================
COMMENT  NG-21 Launch          216:15:29:17.000             0.0     426.2     409.3
COMMENT                                                    (0.0)   (230.1)   (221.0)
COMMENT 
COMMENT  NG-21 Capture         218:07:55:00.000             0.0     425.5     409.7
COMMENT                                                    (0.0)   (229.7)   (221.2)
COMMENT 
COMMENT  87P Undock            226:02:03:30.000             0.0     422.8     410.9
COMMENT                                                    (0.0)   (228.3)   (221.9)
COMMENT 
COMMENT  89P Launch            228:03:20:17.000             0.0     422.2     411.2
COMMENT                                                    (0.0)   (228.0)   (222.0)
COMMENT 
COMMENT =============================================================================
COMMENT End sequence of events
2024-08-11T21:56:00.000 4206.375282647880 5081.025275644190 1642.917859006890 -4.67897961651372 2.01278627789883 5.72003359115681
2024-08-11T22:00:00.000 2944.110966266440 5373.473237108650 2939.084107479550 -5.77567626567830 0.40939595282219 5.01522542433418
2024-08-11T22:04:00.000 1467.740580486210 5275.157651190150 4020.901810552840 -6.45228275448118 -1.22365006096084 3.94476325015227
2024-08-11T22:08:00.000 -115.352134383529 4793.279994095900 4809.522297249330 -6.65963514959968 -2.76744948364537 2.58688815993991
2024-08-11T22:12:00.000 -1690.056904251920 3962.923916112980 5247.490388848800 -6.38281944785045 -4.10996994418533 1.04049032558246
2024-08-11T22:16:00.000 -3141.879311253760 2844.436401020270 5302.843500677440 -5.64179262053372 -5.15393277586396 -0.58214815364719
2024-08-11T22:20:00.000 -4365.163420407860 1519.063671490320 4971.394731199020 -4.48984717557352 -5.82345577989611 -2.16318556026270
2024-08-11T22:24:00.000 -5270.715127752460 83.139288722381 4277.080818774700 -3.01007216135209 -6.06947717966810 -3.58750565076547
2024-08-11T22:28:00.000 -5792.301843251770 -1358.829145305870 3270.319544251500 -1.30966341782819 -5.87338425735672 -4.75085837945448
2024-08-11T22:32:00.000 -5891.602483911970 -2701.723103469050 2024.468055393680 0.48737150255514 -5.24883773668348 -5.56756642614038
2024-08-11T22:36:00.000 -5561.178046759170 -3847.554557963670 630.535384578782 2.24929397207322 -4.24129605094374 -5.97719852102065
2024-08-11T22:40:00.000 -4825.145059656300 -4712.772713737980 -809.521043179842 3.84658957216304 -2.92486996531135 -5.94960791949902
2024-08-11T22:44:00.000 -3737.410720373460 -5234.505372364690 -2190.422024815280 5.16215737434310 -1.39662638425111 -5.48742028384125
2024-08-11T22:48:00.000 -2377.581149988040 -5375.184574971260 -3411.433787188560 6.10029968859813 0.23101064054310 -4.62560440519397
2024-08-11T22:52:00.000 -844.920664388174 -5125.188146097740 -4383.814994171810 6.59387494037993 1.83913228707686 -3.42837739407247
2024-08-11T22:56:00.000 749.079441599522 -4503.299487222090 -5037.217917985560 6.60861254937491 3.31138370819099 -1.98375428017280
2024-08-11T23:00:00.000 2288.831231403440 -3555.094443055220 -5324.599401325580 6.14471535705492 4.54210019796138 -0.39673295096188
2024-08-11T23:04:00.000 3662.899851416290 -2349.513133078270 -5225.416754386750 5.23632693546516 5.44333528760891 1.21814954406195
2024-08-11T23:08:00.000 4771.866712451420 -973.883697195926 -4746.968716652250 3.94882362632331 5.95062309770016 2.74472295710306
2024-08-11T23:12:00.000 5535.328754892070 472.247460785919 -3923.857652544110 2.37444458871377 6.02720562616053 4.07290378656501
2024-08-11T23:16:00.000 5897.664684268360 1884.136166851830 -2815.615988772340 0.62631702695355 5.66685585518841 5.10626564792015
2024-08-11T23:20:00.000 5832.158538982740 3159.318414689500 -1502.566684824390 -1.16919247463994 4.89478069669389 5.76906627729395
2024-08-11T23:24:00.000 5343.126661606930 4205.056624613240 -80.120944854101 -2.88146013943887 3.76641247605715 6.01218889074664
2024-08-11T23:28:00.000 4465.763522386860 4945.179998713660 1348.146490322110 -4.38539811472270 2.36353204662718 5.81717874804862
2024-08-11T23:32:00.000 3263.679210392380 5325.737582008460 2678.099257399990 -5.57083487022979 0.78839807328624 5.19790427481324
2024-08-11T23:36:00.000 1824.254056433270 5319.020924331520 3812.745522606520 -6.35113982468168 -0.84398782641417 4.19962482390044
2024-08-11T23:40:00.000 252.172327483800 4925.565358164370 4669.377328986690 -6.66957224393271 -2.41475728793041 2.89531492509471
2024-08-11T23:44:00.000 -1338.251744729030 4174.027740218020 5185.580162048140 -6.50307529942409 -3.80983650538825 1.38005287428547
2024-08-11T23:48:00.000 -2831.382516149060 3119.041954270700 5323.717545643250 -5.86370602116958 -4.92810877350627 -0.23603302709921
2024-08-11T23:52:00.000 -4118.600997305820 1837.239531832610 5073.602790676440 -4.79749399140919 -5.68843505932162 -1.83566656647831
2024-08-11T23:56:00.000 -5106.105180028750 421.757414901744 4453.247594622030 -3.38122101750144 -6.03521030612950 -3.30248344923409
2024-08-12T00:00:00.000 -5721.733504167870 -1024.421357786980 3507.659631686670 -1.71740309874365 -5.94255714906601 -4.52925806633107
2024-08-12T00:04:00.000 -5920.317714078110 -2395.917064472400 2305.690753374430 0.07283690899036 -5.41657136128053 -5.42575273453266
2024-08-12T00:08:00.000 -5687.146038549860 -3592.678750884890 935.099977189048 1.85839421282140 -4.49536664269491 -5.92571308723287
2024-08-12T00:12:00.000 -5039.186190455650 -4527.418418476960 -503.889391037534 3.50806983003262 -3.24655591755027 -5.99224063788248
2024-08-12T00:16:00.000 -4023.882980315620 -5132.139355641070 -1906.057000680750 4.90077799676584 -1.76224432643000 -5.62088744775042
2024-08-12T00:20:00.000 -2715.561554013280 -5363.175180406250 -3169.062875751870 5.93503987233639 -0.15171358195760 -4.83989052459664
2024-08-12T00:24:00.000 -1209.775350857410 -5204.291478498820 -4201.031529147680 6.53648936346949 1.46721651037740 -3.70757438483880
2024-08-12T00:28:00.000 383.854573611645 -4667.655761849300 -4927.221384514050 6.66287275859633 2.97713817886425 -2.30741910111387
2024-08-12T00:32:00.000 1949.689547318300 -3792.714212348650 -5295.299513976740 6.30647680624778 4.26948942423694 -0.74146509231377
2024-08-12T00:36:00.000 3374.378735278030 -2643.157476912290 -5278.897111977940 5.49384777565827 5.25187880890351 0.87721595065483
2024-08-12T00:40:00.000 4554.852073592910 -1302.300129777100 -4879.350134796500 4.28360934809508 5.85407273627792 2.43212267733075
2024-08-12T00:44:00.000 5405.580106489310 132.827572390401 -4125.573376154470 2.76248780473326 6.03264618463693 3.81124047146035
2024-08-12T00:48:00.000 5864.667702306270 1558.314504770820 -3072.066034359380 1.03964644262896 5.77408131680773 4.91461187306277
2024-08-12T00:52:00.000 5898.402980068710 2870.759907822200 -1795.142558314730 -0.76056692723617 5.09621065267743 5.66154848490438
2024-08-12T00:56:00.000 5503.879828206770 3974.751200251240 -387.537430886834 -2.50733298980653 4.04745943845013 5.99681209487454
2024-08-12T01:00:00.000 4709.403136133590 4789.885688951580 1048.289381674300 -4.07303976292464 2.70376390804390 5.89518675655162
2024-08-12T01:04:00.000 3572.529485256760 5256.756655720280 2407.676794833790 -5.34311694396936 1.16303741976235 5.36368342556822
2024-08-12T01:08:00.000 2175.863660343190 5341.360368859240 3591.488030022900 -6.22470345388288 -0.46228386035034 4.44102942774500
2024-08-12T01:12:00.000 620.979610401034 5037.583647202650 4513.413607640870 -6.65357291291972 -2.05367725616215 3.19470967453599
2024-08-12T01:16:00.000 -979.061620915790 4367.584193136690 5106.286133551350 -6.59873828937755 -3.49557381338629 1.71566359174477
2024-08-12T01:20:00.000 -2507.938996231880 3380.077247550730 5326.888274088080 -6.06412020782723 -4.68347328244570 0.11137219191806
2024-08-12T01:24:00.000 -3854.448855939960 2146.796246638930 5159.042838322440 -5.08819125176648 -5.53119740330953 -1.50166629655964
2024-08-12T01:28:00.000 -4920.517631207400 757.337904527393 4614.788104223420 -3.74125117336853 -5.97694075420895 -3.00620617689345
2024-08-12T01:32:00.000 -5628.300114152810 -687.249177311239 3733.570549109030 -2.12063562284781 -5.98766970376893 -4.29242960399453
2024-08-12T01:36:00.000 -5925.921571727230 -2081.736472552030 2579.505578334210 -0.34416685265188 -5.56189159068094 -5.26586176776711
2024-08-12T01:40:00.000 -5791.422272621920 -3324.408991698880 1236.810084367900 1.45819496715987 -4.73028068898180 -5.85458618027361
2024-08-12T01:44:00.000 -5234.527879133220 -4324.611345771240 -196.352898953452 3.15407200992457 -3.55378982879663 -6.01510163135689
